[{"OBJECT_NAME":"ONEWEB-0616","OBJECT_ID":"2023-004T","EPOCH":"2026-05-11T03:53:27.135168","MEAN_MOTION":13.17648532,"ECCENTRICITY":0.0002395,"INCLINATION":87.9169,"RA_OF_ASC_NODE":13.2277,"ARG_OF_PERICENTER":61.6564,"MEAN_ANOMALY":298.4809,"EPHEMERIS_TYPE":0,"CLASSIFICATION_TYPE":"U","NORAD_CAT_ID":55157,"ELEMENT_SET_NO":999,"REV_AT_EPOCH":16282,"BSTAR":5.424900000000001e-05,"MEAN_MOTION_DOT":3.4e-07,"MEAN_MOTION_DDOT":0.0},{"OBJECT_NAME":"ONEWEB-0617","OBJECT_ID":"2023-004U","EPOCH":"2026-05-11T03:20:40.228800","MEAN_MOTION":13.11417537,"ECCENTRICITY":0.0001816,"INCLINATION":87.8926,"RA_OF_ASC_NODE":28.4356,"ARG_OF_PERICENTER":93.9952,"MEAN_ANOMALY":266.1384,"EPHEMERIS_TYPE":0,"CLASSIFICATION_TYPE":"U","NORAD_CAT_ID":55158,"ELEMENT_SET_NO":999,"REV_AT_EPOCH":16100,"BSTAR":-0.0011859,"MEAN_MOTION_DOT":-4.08e-06,"MEAN_MOTION_DDOT":0.0},{"OBJECT_NAME":"ONEWEB-0618","OBJECT_ID":"2023-004V","EPOCH":"2026-05-11T03:40:06.690144","MEAN_MOTION":15.12846415,"ECCENTRICITY":0.0015133,"INCLINATION":86.9135,"RA_OF_ASC_NODE":192.6606,"ARG_OF_PERICENTER":76.0435,"MEAN_ANOMALY":284.2486,"EPHEMERIS_TYPE":0,"CLASSIFICATION_TYPE":"U","NORAD_CAT_ID":55159,"ELEMENT_SET_NO":999,"REV_AT_EPOCH":17666,"BSTAR":0.00017562,"MEAN_MOTION_DOT":3.127e-05,"MEAN_MOTION_DDOT":0.0},{"OBJECT_NAME":"ONEWEB-0619","OBJECT_ID":"2023-004W","EPOCH":"2026-05-11T04:39:37.107936","MEAN_MOTION":13.17648176,"ECCENTRICITY":0.0002218,"INCLINATION":87.9178,"RA_OF_ASC_NODE":13.1992,"ARG_OF_PERICENTER":86.3783,"MEAN_ANOMALY":273.7602,"EPHEMERIS_TYPE":0,"CLASSIFICATION_TYPE":"U","NORAD_CAT_ID":55160,"ELEMENT_SET_NO":999,"REV_AT_EPOCH":16272,"BSTAR":0.0001418,"MEAN_MOTION_DOT":6.8e-07,"MEAN_MOTION_DDOT":0.0},{"OBJECT_NAME":"ONEWEB-0620","OBJECT_ID":"2023-004X","EPOCH":"2026-05-11T03:13:20.999712","MEAN_MOTION":13.11417536,"ECCENTRICITY":0.0001555,"INCLINATION":87.8921,"RA_OF_ASC_NODE":28.4472,"ARG_OF_PERICENTER":80.1859,"MEAN_ANOMALY":279.9444,"EPHEMERIS_TYPE":0,"CLASSIFICATION_TYPE":"U","NORAD_CAT_ID":55161,"ELEMENT_SET_NO":999,"REV_AT_EPOCH":16097,"BSTAR":-0.001485,"MEAN_MOTION_DOT":-5.14e-06,"MEAN_MOTION_DDOT":0.0},{"OBJECT_NAME":"ONEWEB-0621","OBJECT_ID":"2023-004Y","EPOCH":"2026-05-11T03:52:25.248576","MEAN_MOTION":13.11419226,"ECCENTRICITY":0.0001927,"INCLINATION":87.8927,"RA_OF_ASC_NODE":28.4272,"ARG_OF_PERICENTER":86.7404,"MEAN_ANOMALY":273.3944,"EPHEMERIS_TYPE":0,"CLASSIFICATION_TYPE":"U","NORAD_CAT_ID":55162,"ELEMENT_SET_NO":999,"REV_AT_EPOCH":16095,"BSTAR":0.0016254,"MEAN_MOTION_DOT":5.89e-06,"MEAN_MOTION_DDOT":0.0},{"OBJECT_NAME":"ONEWEB-0622","OBJECT_ID":"2023-004Z","EPOCH":"2026-05-11T03:59:44.956320","MEAN_MOTION":13.11418606,"ECCENTRICITY":0.0001629,"INCLINATION":87.893,"RA_OF_ASC_NODE":28.4283,"ARG_OF_PERICENTER":104.1788,"MEAN_ANOMALY":255.9521,"EPHEMERIS_TYPE":0,"CLASSIFICATION_TYPE":"U","NORAD_CAT_ID":55163,"ELEMENT_SET_NO":999,"REV_AT_EPOCH":16094,"BSTAR":0.001619,"MEAN_MOTION_DOT":5.87e-06,"MEAN_MOTION_DDOT":0.0},{"OBJECT_NAME":"ONEWEB-0623","OBJECT_ID":"2023-004AA","EPOCH":"2026-05-11T04:32:19.415040","MEAN_MOTION":13.17649777,"ECCENTRICITY":0.0002199,"INCLINATION":87.9165,"RA_OF_ASC_NODE":13.235,"ARG_OF_PERICENTER":101.6882,"MEAN_ANOMALY":258.4496,"EPHEMERIS_TYPE":0,"CLASSIFICATION_TYPE":"U","NORAD_CAT_ID":55164,"ELEMENT_SET_NO":999,"REV_AT_EPOCH":16271,"BSTAR":0.00016046,"MEAN_MOTION_DOT":7.5e-07,"MEAN_MOTION_DDOT":0.0},{"OBJECT_NAME":"ONEWEB-0624","OBJECT_ID":"2023-004AB","EPOCH":"2026-05-11T03:46:30.967104","MEAN_MOTION":13.1292723,"ECCENTRICITY":0.0001844,"INCLINATION":87.8972,"RA_OF_ASC_NODE":357.9542,"ARG_OF_PERICENTER":88.4969,"MEAN_ANOMALY":271.6371,"EPHEMERIS_TYPE":0,"CLASSIFICATION_TYPE":"U","NORAD_CAT_ID":55165,"ELEMENT_SET_NO":999,"REV_AT_EPOCH":16321,"BSTAR":0.0010242,"MEAN_MOTION_DOT":3.84e-06,"MEAN_MOTION_DDOT":0.0},{"OBJECT_NAME":"ONEWEB-0625","OBJECT_ID":"2023-004AC","EPOCH":"2026-05-11T04:17:45.104928","MEAN_MOTION":13.17648018,"ECCENTRICITY":0.0001936,"INCLINATION":87.9167,"RA_OF_ASC_NODE":13.2316,"ARG_OF_PERICENTER":78.6284,"MEAN_ANOMALY":281.5065,"EPHEMERIS_TYPE":0,"CLASSIFICATION_TYPE":"U","NORAD_CAT_ID":55166,"ELEMENT_SET_NO":999,"REV_AT_EPOCH":16270,"BSTAR":0.00012579000000000003,"MEAN_MOTION_DOT":6.2e-07,"MEAN_MOTION_DDOT":0.0},{"OBJECT_NAME":"ONEWEB-0626","OBJECT_ID":"2023-004AD","EPOCH":"2026-05-11T04:03:09.554976","MEAN_MOTION":13.17649805,"ECCENTRICITY":0.0001412,"INCLINATION":87.9167,"RA_OF_ASC_NODE":13.2334,"ARG_OF_PERICENTER":75.6229,"MEAN_ANOMALY":284.5059,"EPHEMERIS_TYPE":0,"CLASSIFICATION_TYPE":"U","NORAD_CAT_ID":55167,"ELEMENT_SET_NO":999,"REV_AT_EPOCH":16270,"BSTAR":-0.00028921999999999997,"MEAN_MOTION_DOT":-9.9e-07,"MEAN_MOTION_DDOT":0.0},{"OBJECT_NAME":"ONEWEB-0627","OBJECT_ID":"2023-004AE","EPOCH":"2026-05-11T03:46:09.584832","MEAN_MOTION":13.17649964,"ECCENTRICITY":0.0002038,"INCLINATION":87.9169,"RA_OF_ASC_NODE":13.2361,"ARG_OF_PERICENTER":96.332,"MEAN_ANOMALY":263.8044,"EPHEMERIS_TYPE":0,"CLASSIFICATION_TYPE":"U","NORAD_CAT_ID":55168,"ELEMENT_SET_NO":999,"REV_AT_EPOCH":16270,"BSTAR":4.0587e-05,"MEAN_MOTION_DOT":2.9e-07,"MEAN_MOTION_DDOT":0.0},{"OBJECT_NAME":"ONEWEB-0628","OBJECT_ID":"2023-004AF","EPOCH":"2026-05-11T03:00:03.623616","MEAN_MOTION":13.12443146,"ECCENTRICITY":0.0002239,"INCLINATION":87.8975,"RA_OF_ASC_NODE":358.0212,"ARG_OF_PERICENTER":98.987,"MEAN_ANOMALY":261.1513,"EPHEMERIS_TYPE":0,"CLASSIFICATION_TYPE":"U","NORAD_CAT_ID":55169,"ELEMENT_SET_NO":999,"REV_AT_EPOCH":16317,"BSTAR":-0.0014995,"MEAN_MOTION_DOT":-5.27e-06,"MEAN_MOTION_DDOT":0.0},{"OBJECT_NAME":"ONEWEB-0629","OBJECT_ID":"2023-004AG","EPOCH":"2026-05-11T03:10:55.792416","MEAN_MOTION":13.17649053,"ECCENTRICITY":0.0002117,"INCLINATION":87.9169,"RA_OF_ASC_NODE":13.2375,"ARG_OF_PERICENTER":84.2487,"MEAN_ANOMALY":275.8885,"EPHEMERIS_TYPE":0,"CLASSIFICATION_TYPE":"U","NORAD_CAT_ID":55170,"ELEMENT_SET_NO":999,"REV_AT_EPOCH":16270,"BSTAR":2.7164e-05,"MEAN_MOTION_DOT":2.3e-07,"MEAN_MOTION_DDOT":0.0},{"OBJECT_NAME":"ONEWEB-0631","OBJECT_ID":"2023-004AH","EPOCH":"2026-05-11T01:46:13.194912","MEAN_MOTION":13.18686515,"ECCENTRICITY":0.0001373,"INCLINATION":87.9183,"RA_OF_ASC_NODE":342.8203,"ARG_OF_PERICENTER":95.6942,"MEAN_ANOMALY":264.4346,"EPHEMERIS_TYPE":0,"CLASSIFICATION_TYPE":"U","NORAD_CAT_ID":55171,"ELEMENT_SET_NO":999,"REV_AT_EPOCH":16478,"BSTAR":8.8293e-05,"MEAN_MOTION_DOT":4.8e-07,"MEAN_MOTION_DDOT":0.0},{"OBJECT_NAME":"ONEWEB-0709","OBJECT_ID":"2023-004AJ","EPOCH":"2026-05-11T02:58:42.730752","MEAN_MOTION":13.11416794,"ECCENTRICITY":0.0001143,"INCLINATION":87.8917,"RA_OF_ASC_NODE":28.4513,"ARG_OF_PERICENTER":55.035,"MEAN_ANOMALY":305.0886,"EPHEMERIS_TYPE":0,"CLASSIFICATION_TYPE":"U","NORAD_CAT_ID":55172,"ELEMENT_SET_NO":999,"REV_AT_EPOCH":16101,"BSTAR":-0.0017075000000000003,"MEAN_MOTION_DOT":-5.92e-06,"MEAN_MOTION_DDOT":0.0}]