ONEWEB-0616             
1 55157U 23004T   26131.16211962  .00000034  00000+0  54249-4 0  9997
2 55157  87.9169  13.2277 0002395  61.6564 298.4809 13.17648532162823
ONEWEB-0617             
1 55158U 23004U   26131.13935450 -.00000408  00000+0 -11859-2 0  9995
2 55158  87.8926  28.4356 0001816  93.9952 266.1384 13.11417537161008
ONEWEB-0618             
1 55159U 23004V   26131.15285521  .00003127  00000+0  17562-3 0  9992
2 55159  86.9135 192.6606 0015133  76.0435 284.2486 15.12846415176664
ONEWEB-0619             
1 55160U 23004W   26131.19417949  .00000068  00000+0  14180-3 0  9993
2 55160  87.9178  13.1992 0002218  86.3783 273.7602 13.17648176162721
ONEWEB-0620             
1 55161U 23004X   26131.13427083 -.00000514  00000+0 -14850-2 0  9999
2 55161  87.8921  28.4472 0001555  80.1859 279.9444 13.11417536160973
ONEWEB-0621             
1 55162U 23004Y   26131.16140334  .00000589  00000+0  16254-2 0  9994
2 55162  87.8927  28.4272 0001927  86.7404 273.3944 13.11419226160958
ONEWEB-0622             
1 55163U 23004Z   26131.16649255  .00000587  00000+0  16190-2 0  9998
2 55163  87.8930  28.4283 0001629 104.1788 255.9521 13.11418606160941
ONEWEB-0623             
1 55164U 23004AA  26131.18911360  .00000075  00000+0  16046-3 0  9993
2 55164  87.9165  13.2350 0002199 101.6882 258.4496 13.17649777162717
ONEWEB-0624             
1 55165U 23004AB  26131.15730286  .00000384  00000+0  10242-2 0  9991
2 55165  87.8972 357.9542 0001844  88.4969 271.6371 13.12927230163211
ONEWEB-0625             
1 55166U 23004AC  26131.17899427  .00000062  00000+0  12579-3 0  9996
2 55166  87.9167  13.2316 0001936  78.6284 281.5065 13.17648018162705
ONEWEB-0626             
1 55167U 23004AD  26131.16886059 -.00000099  00000+0 -28922-3 0  9994
2 55167  87.9167  13.2334 0001412  75.6229 284.5059 13.17649805162702
ONEWEB-0627             
1 55168U 23004AE  26131.15705538  .00000029  00000+0  40587-4 0  9999
2 55168  87.9169  13.2361 0002038  96.3320 263.8044 13.17649964162702
ONEWEB-0628             
1 55169U 23004AF  26131.12504194 -.00000527  00000+0 -14995-2 0  9999
2 55169  87.8975 358.0212 0002239  98.9870 261.1513 13.12443146163176
ONEWEB-0629             
1 55170U 23004AG  26131.13259019  .00000023  00000+0  27164-4 0  9998
2 55170  87.9169  13.2375 0002117  84.2487 275.8885 13.17649053162703
ONEWEB-0631             
1 55171U 23004AH  26131.07376383  .00000048  00000+0  88293-4 0  9993
2 55171  87.9183 342.8203 0001373  95.6942 264.4346 13.18686515164787
ONEWEB-0709             
1 55172U 23004AJ  26131.12410568 -.00000592  00000+0 -17075-2 0  9998
2 55172  87.8917  28.4513 0001143  55.0350 305.0886 13.11416794161018
